COMMENT,ORIGINATOR,NORAD_CAT_ID,OBJECT_NAME,OBJECT_TYPE,CLASSIFICATION_TYPE,INTLDES,EPOCH,EPOCH_MICROSECONDS,MEAN_MOTION,ECCENTRICITY,INCLINATION,RA_OF_ASC_NODE,ARG_OF_PERICENTER,MEAN_ANOMALY,EPHEMERIS_TYPE,ELEMENT_SET_NO,REV_AT_EPOCH,BSTAR,MEAN_MOTION_DOT,MEAN_MOTION_DDOT,FILE,TLE_LINE0,TLE_LINE1,TLE_LINE2,OBJECT_ID,OBJECT_NUMBER,SEMIMAJOR_AXIS,PERIOD,APOGEE,PERIGEE,DECAYED
GENERATED VIA SPACETRACK.ORG API,18 SPCS,28945,SPAINSAT,PAYLOAD,U,06007A,2024-01-18 18:09:12,380256,1.00269248,0.0004804,0.0614,248.4578,27.2397,84.2261,0,999,6538,0,-0.00000212,0,4165695,0 SPAINSAT,1 28945U 06007A   24018.75639329 -.00000212  00000-0  00000+0 0  9995,2 28945   0.0614 248.4578 0004804  27.2397  84.2261  1.00269248 65382,2006-007A,28945,42165.443,1436.133,35807.564,35767.052,0
GENERATED VIA SPACETRACK.ORG API,18 SPCS,28945,SPAINSAT,PAYLOAD,U,06007A,2024-01-18 18:09:12,267072,1.00272952,0.0004905,0.062,248.4623,24.6546,86.8054,0,999,6538,0,-0.00000211,0,4166049,0 SPAINSAT,1 28945U 06007A   24018.75639198 -.00000211  00000-0  00000+0 0  9998,2 28945   0.0620 248.4623 0004905  24.6546  86.8054  1.00272952 65383,2006-007A,28945,42164.405,1436.080,35806.951,35765.588,0
GENERATED VIA SPACETRACK.ORG API,18 SPCS,28945,SPAINSAT,PAYLOAD,U,06007A,2024-01-18 18:09:12,267072,1.00272952,0.0004905,0.062,248.4623,24.6546,86.8054,0,999,6539,0,-0.00000211,0,4166138,0 SPAINSAT,1 28945U 06007A   24018.75639198 -.00000211  00000-0  00000-0 0  9999,2 28945   0.0620 248.4623 0004905  24.6546  86.8054  1.00272952 65394,2006-007A,28945,42164.405,1436.080,35806.951,35765.588,0
GENERATED VIA SPACETRACK.ORG API,18 SPCS,44457,COSMOS 2539,PAYLOAD,U,19048A,2024-01-18 17:52:03,35712,1.00273743,0.000019,0.0306,114.8785,308.0867,334.6797,0,999,1640,0,0.00000086,0,4165444,0 COSMOS 2539,1 44457U 19048A   24018.74447958  .00000086  00000-0  00000+0 0  9992,2 44457   0.0306 114.8785 0000190 308.0867 334.6797  1.00273743 16408,2019-048A,44457,42164.183,1436.069,35786.849,35785.247,0
GENERATED VIA SPACETRACK.ORG API,18 SPCS,44457,COSMOS 2539,PAYLOAD,U,19048A,2024-01-18 17:52:03,35712,1.00273743,0.000019,0.0306,114.8785,308.0867,334.6797,0,999,1638,0,0.00000086,0,4165541,0 COSMOS 2539,1 44457U 19048A   24018.74447958  .00000086  00000-0  00000-0 0  9993,2 44457   0.0306 114.8785 0000190 308.0867 334.6797  1.00273743 16385,2019-048A,44457,42164.183,1436.069,35786.849,35785.247,0
GENERATED VIA SPACETRACK.ORG API,18 SPCS,42749,ECHOSTAR 21,PAYLOAD,U,17032A,2024-01-18 17:51:32,960736,1.00270853,0.0002523,2.8057,316.7336,336.2046,102.8307,0,999,2428,0,0.00000072,0,4165541,0 ECHOSTAR 21,1 42749U 17032A   24018.74413149  .00000072  00000-0  00000-0 0  9996,2 42749   2.8057 316.7336 0002523 336.2046 102.8307  1.00270853 24288,2017-032A,42749,42164.993,1436.110,35797.496,35776.220,0
GENERATED VIA SPACETRACK.ORG API,18 SPCS,42915,TDRS 13,PAYLOAD,U,17047A,2024-01-18 17:45:09,503712,1.00271717,0.0011919,3.7696,341.6135,113.862,276.8938,0,999,2352,0,-0.00000093,0,4165541,0 TDRS 13,1 42915U 17047A   24018.73969333 -.00000093  00000-0  00000-0 0  9991,2 42915   3.7696 341.6135 0011919 113.8620 276.8938  1.00271717 23520,2017-047A,42915,42164.751,1436.098,35836.872,35736.360,0
GENERATED VIA SPACETRACK.ORG API,18 SPCS,25001,TITAN 3C TRANSTAGE DEB,DEBRIS,U,68081H,2024-01-18 17:06:26,205120,1.01694551,0.0063145,1.0686,341.5971,40.9948,204.7076,0,999,10936,0,-0.00000026,0,4165541,0 TITAN 3C TRANSTAGE DEB,1 25001U 68081H   24018.71280330 -.00000026  00000-0  00000-0 0  9999,2 25001   1.0686 341.5971 0063145  40.9948 204.7076  1.01694551109361,1968-081H,25001,41770.536,1416.005,35656.161,35128.641,0
GENERATED VIA SPACETRACK.ORG API,18 SPCS,43162,SBIRS GEO 3 (USA 282),PAYLOAD,U,18009A,2024-01-18 17:02:55,680288,1.00271636,0.0001908,2.5504,330.3849,322.7568,280.7783,0,999,2201,0,0.00000135,0,4165541,0 SBIRS GEO 3 (USA 282),1 43162U 18009A   24018.71036667  .00000135  00000-0  00000-0 0  9994,2 43162   2.5504 330.3849 0001908 322.7568 280.7783  1.00271636 22011,2018-009A,43162,42164.774,1436.099,35794.684,35778.594,0
GENERATED VIA SPACETRACK.ORG API,18 SPCS,43454,TITAN 3C TRANSTAGE DEB,DEBRIS,U,69013M,2024-01-18 16:28:38,936928,1.02846125,0.0561484,1.5769,249.5302,209.0724,147.9747,0,999,2157,0,-0.0000021,0,4165685,0 TITAN 3C TRANSTAGE DEB,1 43454U 69013M   24018.68656177 -.00000210  00000-0  00000+0 0  9993,2 43454   1.5769 249.5302 0561484 209.0724 147.9747  1.02846125 21570,1969-013M,43454,41458.147,1400.150,37407.820,32752.203,0
GENERATED VIA SPACETRACK.ORG API,18 SPCS,43454,TITAN 3C TRANSTAGE DEB,DEBRIS,U,69013M,2024-01-18 16:28:36,191136,1.028461,0.056148,1.577,249.5189,209.0849,147.9609,0,999,2157,0,-0.0000021,0,4166138,0 TITAN 3C TRANSTAGE DEB,1 43454U 69013M   24018.68652999 -.00000210  00000-0  00000-0 0  9992,2 43454   1.5770 249.5189 0561480 209.0849 147.9609  1.02846100 21579,1969-013M,43454,41458.154,1400.150,37407.811,32752.226,0
GENERATED VIA SPACETRACK.ORG API,18 SPCS,8832,TITAN 3C TRANSTAGE DEB,DEBRIS,U,76023J,2024-01-18 16:21:45,48096,0.98258678,0.0137312,20.0021,53.8565,72.7123,295.2436,0,999,10894,0,-0.00000022,0,4165319,0 TITAN 3C TRANSTAGE DEB,1  8832U 76023J   24018.68177139 -.00000022  00000-0  00000+0 0  9990,2  8832  20.0021  53.8565 0137312  72.7123 295.2436  0.98258678108945,1976-023J,8832,42738.692,1465.519,36947.411,35773.704,0
GENERATED VIA SPACETRACK.ORG API,18 SPCS,8832,TITAN 3C TRANSTAGE DEB,DEBRIS,U,76023J,2024-01-18 16:21:45,48096,0.98258678,0.0137312,20.0021,53.8565,72.7123,295.2436,0,999,10895,0,-0.00000023,0,4165541,0 TITAN 3C TRANSTAGE DEB,1 08832U 76023J   24018.68177139 -.00000023  00000-0  00000-0 0  9992,2 08832  20.0021  53.8565 0137312  72.7123 295.2436  0.98258678108956,1976-023J,8832,42738.692,1465.519,36947.411,35773.704,0
GENERATED VIA SPACETRACK.ORG API,18 SPCS,41937,SBIRS GEO 4 (USA 273),PAYLOAD,U,17004A,2024-01-18 16:09:42,451200,1.00270967,0.0002568,1.4839,346.2079,306.0585,330.9097,0,999,2577,0,-0.00000138,0,4165345,0 SBIRS GEO 4 (USA 273),1 41937U 17004A   24018.67340800 -.00000138  00000-0  00000+0 0  9991,2 41937   1.4839 346.2079 0002568 306.0585 330.9097  1.00270967 25774,2017-004A,41937,42164.961,1436.109,35797.654,35775.998,0
GENERATED VIA SPACETRACK.ORG API,18 SPCS,41937,SBIRS GEO 4 (USA 273),PAYLOAD,U,17004A,2024-01-18 16:09:42,451200,1.00270967,0.0002568,1.4839,346.2079,306.0585,330.9097,0,999,2577,0,-0.00000138,0,4165541,0 SBIRS GEO 4 (USA 273),1 41937U 17004A   24018.67340800 -.00000138  00000-0  00000-0 0  9992,2 41937   1.4839 346.2079 0002568 306.0585 330.9097  1.00270967 25774,2017-004A,41937,42164.961,1436.109,35797.654,35775.998,0
GENERATED VIA SPACETRACK.ORG API,18 SPCS,29162,EUTE 113 WEST A(SATMEX 6,PAYLOAD,U,06020A,2024-01-18 15:55:49,293408,1.00270949,0.0003022,0.0929,109.7422,185.6257,308.1249,0,999,6463,0,-0.00000032,0,4165280,0 EUTE 113 WEST A(SATMEX 6,1 29162U 06020A   24018.66376497 -.00000032  00000-0  00000+0 0  9996,2 29162   0.0929 109.7422 0003022 185.6257 308.1249  1.00270949 64636,2006-020A,29162,42164.966,1436.109,35799.574,35774.089,0
GENERATED VIA SPACETRACK.ORG API,18 SPCS,43162,SBIRS GEO 3 (USA 282),PAYLOAD,U,18009A,2024-01-18 15:15:09,845568,1.00271636,0.0001895,2.5506,330.3829,322.6091,253.9135,0,999,2201,0,0.00000135,0,4165274,0 SBIRS GEO 3 (USA 282),1 43162U 18009A   24018.63553062  .00000135  00000-0  00000-0 0  9998,2 43162   2.5506 330.3829 0001895 322.6091 253.9135  1.00271636 22019,2018-009A,43162,42164.774,1436.099,35794.629,35778.649,0
GENERATED VIA SPACETRACK.ORG API,18 SPCS,22787,UFO 2 (USA 95),PAYLOAD,U,93056A,2024-01-18 14:30:30,600576,1.00275651,0.0003623,11.6136,8.136,297.0997,58.6139,0,999,10971,0,0.00000124,0,4165541,0 UFO 2 (USA 95),1 22787U 93056A   24018.60452084  .00000124  00000-0  00000-0 0  9990,2 22787  11.6136   8.1360 0003623 297.0997  58.6139  1.00275651109718,1993-056A,22787,42163.648,1436.042,35800.789,35770.237,0
GENERATED VIA SPACETRACK.ORG API,18 SPCS,22988,USA 99,PAYLOAD,U,94009A,2024-01-18 14:07:29,232192,1.00270661,0.0003352,16.2729,37.0296,260.626,301.7064,0,999,2413,0,-0.00000203,0,4165274,0 USA 99,1 22988U 94009A   24018.58853278 -.00000203  00000-0  00000-0 0  9998,2 22988  16.2729  37.0296 0003352 260.6260 301.7064  1.00270661 24134,1994-009A,22988,42165.047,1436.113,35801.046,35772.778,0
GENERATED VIA SPACETRACK.ORG API,18 SPCS,41937,SBIRS GEO 4 (USA 273),PAYLOAD,U,17004A,2024-01-18 13:59:12,662880,1.00270959,0.0002559,1.484,346.2077,306.1887,298.0666,0,999,2577,0,-0.00000138,0,4165274,0 SBIRS GEO 4 (USA 273),1 41937U 17004A   24018.58278545 -.00000138  00000-0  00000-0 0  9998,2 41937   1.4840 346.2077 0002559 306.1887 298.0666  1.00270959 25777,2017-004A,41937,42164.964,1436.109,35797.619,35776.039,0
GENERATED VIA SPACETRACK.ORG API,18 SPCS,33373,NIMIQ 4,PAYLOAD,U,08044A,2024-01-18 13:58:33,316320,1.00271309,0.0002349,0.0149,56.6316,256.2614,292.2257,0,999,5615,0,-0.00000215,0,4165541,0 NIMIQ 4,1 33373U 08044A   24018.58233005 -.00000215  00000-0  00000-0 0  9995,2 33373   0.0149  56.6316 0002349 256.2614 292.2257  1.00271309 56155,2008-044A,33373,42164.865,1436.104,35796.635,35776.826,0
GENERATED VIA SPACETRACK.ORG API,18 SPCS,42915,TDRS 13,PAYLOAD,U,17047A,2024-01-18 13:54:45,33696,1.00271689,0.0011929,3.7698,341.6104,113.8893,219.11,0,999,2351,0,-0.00000093,0,4165274,0 TDRS 13,1 42915U 17047A   24018.57968789 -.00000093  00000-0  00000-0 0  9997,2 42915   3.7698 341.6104 0011929 113.8893 219.1100  1.00271689 23519,2017-047A,42915,42164.759,1436.098,35836.922,35736.326,0
GENERATED VIA SPACETRACK.ORG API,18 SPCS,29162,EUTE 113 WEST A(SATMEX 6,PAYLOAD,U,06020A,2024-01-18 13:46:02,176320,1.00271666,0.0003016,0.0923,108.6287,193.5609,268.7792,0,999,6464,0,-0.00000032,0,4165274,0 EUTE 113 WEST A(SATMEX 6,1 29162U 06020A   24018.57363630 -.00000032  00000-0  00000-0 0  9992,2 29162   0.0923 108.6287 0003016 193.5609 268.7792  1.00271666 64641,2006-020A,29162,42164.765,1436.099,35799.347,35773.913,0
